{"type": "FeatureCollection", "features": [{"type": "Feature", "properties": {"norad_id": 28054, "name": "DMSP 5D-3 F16 (USA 172)", "group": "weather", "lat": -61.895057962620854, "lon": 29.957846035596152, "alt_km": 846.8555240188243, "timestamp": "2025-12-21T03:56:50.500977+00:00", "meta": {"OBJECT_NAME": "DMSP 5D-3 F16 (USA 172)", "OBJECT_ID": "2003-048A", "EPOCH": "2025-12-20T20:34:29.811072", "MEAN_MOTION": 14.14426836, "ECCENTRICITY": 0.0006288, "INCLINATION": 99.0038, "RA_OF_ASC_NODE": 12.3779, "ARG_OF_PERICENTER": 295.0195, "MEAN_ANOMALY": 238.4767, "EPHEMERIS_TYPE": 0, "CLASSIFICATION_TYPE": "U", "NORAD_CAT_ID": 28054, "ELEMENT_SET_NO": 999, "REV_AT_EPOCH": 14427, "BSTAR": 6.1747e-05, "MEAN_MOTION_DOT": 7.3e-07, "MEAN_MOTION_DDOT": 0}, "tle": {"line1": "1 28054U 03048A   25354.85728948  .00000073  00000+0  61747-4 0  9992", "line2": "2 28054  99.0038  12.3779 0006288 295.0195 238.4767 14.14426836144278"}}, "geometry": {"type": "Point", "coordinates": [29.957846035596152, -61.895057962620854]}}, {"type": "Feature", "properties": {"norad_id": 28912, "name": "METEOSAT-9 (MSG-2)", "group": "weather", "lat": 6.0717902910081065, "lon": -166.6233063377427, "alt_km": 36146.57584916609, "timestamp": "2025-12-21T03:56:50.501027+00:00", "meta": {"OBJECT_NAME": "METEOSAT-9 (MSG-2)", "OBJECT_ID": "2005-049B", "EPOCH": "2025-12-20T18:34:58.765728", "MEAN_MOTION": 1.00265537, "ECCENTRICITY": 0.0104285, "INCLINATION": 8.9429, "RA_OF_ASC_NODE": 55.8777, "ARG_OF_PERICENTER": 282.8799, "MEAN_ANOMALY": 74.1046, "EPHEMERIS_TYPE": 0, "CLASSIFICATION_TYPE": "U", "NORAD_CAT_ID": 28912, "ELEMENT_SET_NO": 999, "REV_AT_EPOCH": 520, "BSTAR": 0, "MEAN_MOTION_DOT": 1.08e-06, "MEAN_MOTION_DDOT": 0}, "tle": {"line1": "1 28912U 05049B   25354.77429127  .00000108  00000+0  00000+0 0  9995", "line2": "2 28912   8.9429  55.8777 0104285 282.8799  74.1046  1.00265537  5208"}}, "geometry": {"type": "Point", "coordinates": [-166.6233063377427, 6.0717902910081065]}}, {"type": "Feature", "properties": {"norad_id": 29522, "name": "DMSP 5D-3 F17 (USA 191)", "group": "weather", "lat": -70.1579792012366, "lon": 155.14776626693845, "alt_km": 845.5435431783917, "timestamp": "2025-12-21T03:56:50.501041+00:00", "meta": {"OBJECT_NAME": "DMSP 5D-3 F17 (USA 191)", "OBJECT_ID": "2006-050A", "EPOCH": "2025-12-20T19:58:16.107168", "MEAN_MOTION": 14.14922919, "ECCENTRICITY": 0.0009741, "INCLINATION": 98.739, "RA_OF_ASC_NODE": 0.0527, "ARG_OF_PERICENTER": 200.4887, "MEAN_ANOMALY": 159.5897, "EPHEMERIS_TYPE": 0, "CLASSIFICATION_TYPE": "U", "NORAD_CAT_ID": 29522, "ELEMENT_SET_NO": 999, "REV_AT_EPOCH": 98719, "BSTAR": 8.2654e-05, "MEAN_MOTION_DOT": 1.16e-06, "MEAN_MOTION_DDOT": 0}, "tle": {"line1": "1 29522U 06050A   25354.83213087  .00000116  00000+0  82654-4 0  9998", "line2": "2 29522  98.7390   0.0527 0009741 200.4887 159.5897 14.14922919987192"}}, "geometry": {"type": "Point", "coordinates": [155.14776626693845, -70.1579792012366]}}, {"type": "Feature", "properties": {"norad_id": 32958, "name": "FENGYUN 3A", "group": "weather", "lat": 72.59465645049123, "lon": 143.64321385904287, "alt_km": 825.5089049062872, "timestamp": "2025-12-21T03:56:50.501054+00:00", "meta": {"OBJECT_NAME": "FENGYUN 3A", "OBJECT_ID": "2008-026A", "EPOCH": "2025-12-20T18:59:42.677088", "MEAN_MOTION": 14.19516897, "ECCENTRICITY": 0.0007669, "INCLINATION": 98.6708, "RA_OF_ASC_NODE": 294.149, "ARG_OF_PERICENTER": 284.5029, "MEAN_ANOMALY": 75.5296, "EPHEMERIS_TYPE": 0, "CLASSIFICATION_TYPE": "U", "NORAD_CAT_ID": 32958, "ELEMENT_SET_NO": 999, "REV_AT_EPOCH": 91009, "BSTAR": 5.2013e-05, "MEAN_MOTION_DOT": 6.6e-07, "MEAN_MOTION_DDOT": 0}, "tle": {"line1": "1 32958U 08026A   25354.79146617  .00000066  00000+0  52013-4 0  9999", "line2": "2 32958  98.6708 294.1490 0007669 284.5029  75.5296 14.19516897910098"}}, "geometry": {"type": "Point", "coordinates": [143.64321385904287, 72.59465645049123]}}, {"type": "Feature", "properties": {"norad_id": 35491, "name": "GOES 14", "group": "weather", "lat": -0.9393875010148122, "lon": 34.13285658333424, "alt_km": 35836.5892104617, "timestamp": "2025-12-21T03:56:50.501067+00:00", "meta": {"OBJECT_NAME": "GOES 14", "OBJECT_ID": "2009-033A", "EPOCH": "2025-12-20T14:23:46.907808", "MEAN_MOTION": 1.00096889, "ECCENTRICITY": 5.18e-05, "INCLINATION": 1.223, "RA_OF_ASC_NODE": 85.3269, "ARG_OF_PERICENTER": 182.5261, "MEAN_ANOMALY": 282.8096, "EPHEMERIS_TYPE": 0, "CLASSIFICATION_TYPE": "U", "NORAD_CAT_ID": 35491, "ELEMENT_SET_NO": 999, "REV_AT_EPOCH": 480, "BSTAR": 0, "MEAN_MOTION_DOT": 2.1e-07, "MEAN_MOTION_DDOT": 0}, "tle": {"line1": "1 35491U 09033A   25354.59984847  .00000021  00000+0  00000+0 0  9991", "line2": "2 35491   1.2230  85.3269 0000518 182.5261 282.8096  1.00096889  4802"}}, "geometry": {"type": "Point", "coordinates": [34.13285658333424, -0.9393875010148122]}}, {"type": "Feature", "properties": {"norad_id": 35951, "name": "DMSP 5D-3 F18 (USA 210)", "group": "weather", "lat": 63.42938769648073, "lon": 169.74834788027752, "alt_km": 834.5707606068581, "timestamp": "2025-12-21T03:56:50.501078+00:00", "meta": {"OBJECT_NAME": "DMSP 5D-3 F18 (USA 210)", "OBJECT_ID": "2009-057A", "EPOCH": "2025-12-20T18:55:10.720128", "MEAN_MOTION": 14.14774105, "ECCENTRICITY": 0.0011858, "INCLINATION": 98.8842, "RA_OF_ASC_NODE": 331.1491, "ARG_OF_PERICENTER": 41.5699, "MEAN_ANOMALY": 318.6373, "EPHEMERIS_TYPE": 0, "CLASSIFICATION_TYPE": "U", "NORAD_CAT_ID": 35951, "ELEMENT_SET_NO": 999, "REV_AT_EPOCH": 83436, "BSTAR": 0.00012509, "MEAN_MOTION_DOT": 1.97e-06, "MEAN_MOTION_DDOT": 0}, "tle": {"line1": "1 35951U 09057A   25354.78831852  .00000197  00000+0  12509-3 0  9991", "line2": "2 35951  98.8842 331.1491 0011858  41.5699 318.6373 14.14774105834362"}}, "geometry": {"type": "Point", "coordinates": [169.74834788027752, 63.42938769648073]}}, {"type": "Feature", "properties": {"norad_id": 36411, "name": "EWS-G2 (GOES 15)", "group": "weather", "lat": 0.6737239383402706, "lon": -149.49295015081304, "alt_km": 35772.34698249624, "timestamp": "2025-12-21T03:56:50.501089+00:00", "meta": {"OBJECT_NAME": "EWS-G2 (GOES 15)", "OBJECT_ID": "2010-008A", "EPOCH": "2025-12-20T15:10:42.642336", "MEAN_MOTION": 1.00271052, "ECCENTRICITY": 0.0005465, "INCLINATION": 0.8321, "RA_OF_ASC_NODE": 86.0835, "ARG_OF_PERICENTER": 177.7538, "MEAN_ANOMALY": 114.6687, "EPHEMERIS_TYPE": 0, "CLASSIFICATION_TYPE": "U", "NORAD_CAT_ID": 36411, "ELEMENT_SET_NO": 999, "REV_AT_EPOCH": 5784, "BSTAR": 0, "MEAN_MOTION_DOT": 6.1e-07, "MEAN_MOTION_DDOT": 0}, "tle": {"line1": "1 36411U 10008A   25354.63243799  .00000061  00000+0  00000+0 0  9991", "line2": "2 36411   0.8321  86.0835 0005465 177.7538 114.6687  1.00271052 57844"}}, "geometry": {"type": "Point", "coordinates": [-149.49295015081304, 0.6737239383402706]}}, {"type": "Feature", "properties": {"norad_id": 36744, "name": "COMS 1", "group": "weather", "lat": -1.4782613964765337, "lon": -82.67891954559676, "alt_km": 35783.2932106317, "timestamp": "2025-12-21T03:56:50.501100+00:00", "meta": {"OBJECT_NAME": "COMS 1", "OBJECT_ID": "2010-032A", "EPOCH": "2025-12-20T17:15:48.580128", "MEAN_MOTION": 1.00272163, "ECCENTRICITY": 6.97e-05, "INCLINATION": 4.3584, "RA_OF_ASC_NODE": 77.9096, "ARG_OF_PERICENTER": 203.045, "MEAN_ANOMALY": 195.7243, "EPHEMERIS_TYPE": 0, "CLASSIFICATION_TYPE": "U", "NORAD_CAT_ID": 36744, "ELEMENT_SET_NO": 999, "REV_AT_EPOCH": 4930, "BSTAR": 0, "MEAN_MOTION_DOT": -3.24e-06, "MEAN_MOTION_DDOT": 0}, "tle": {"line1": "1 36744U 10032A   25354.71931227 -.00000324  00000+0  00000+0 0  9999", "line2": "2 36744   4.3584  77.9096 0000697 203.0450 195.7243  1.00272163 49303"}}, "geometry": {"type": "Point", "coordinates": [-82.67891954559676, -1.4782613964765337]}}, {"type": "Feature", "properties": {"norad_id": 37214, "name": "FENGYUN 3B", "group": "weather", "lat": 76.86705973089182, "lon": -7.526295014618596, "alt_km": 840.186589661409, "timestamp": "2025-12-21T03:56:50.501110+00:00", "meta": {"OBJECT_NAME": "FENGYUN 3B", "OBJECT_ID": "2010-059A", "EPOCH": "2025-12-20T21:35:53.994336", "MEAN_MOTION": 14.14791165, "ECCENTRICITY": 0.0021668, "INCLINATION": 98.9899, "RA_OF_ASC_NODE": 34.9342, "ARG_OF_PERICENTER": 334.563, "MEAN_ANOMALY": 198.975, "EPHEMERIS_TYPE": 0, "CLASSIFICATION_TYPE": "U", "NORAD_CAT_ID": 37214, "ELEMENT_SET_NO": 999, "REV_AT_EPOCH": 78221, "BSTAR": -9.2833e-05, "MEAN_MOTION_DOT": -2.25e-06, "MEAN_MOTION_DDOT": 0}, "tle": {"line1": "1 37214U 10059A   25354.89993049 -.00000225  00000+0 -92833-4 0  9991", "line2": "2 37214  98.9899  34.9342 0021668 334.5630 198.9750 14.14791165782211"}}, "geometry": {"type": "Point", "coordinates": [-7.526295014618596, 76.86705973089182]}}, {"type": "Feature", "properties": {"norad_id": 37849, "name": "SUOMI NPP", "group": "weather", "lat": 62.514619034680905, "lon": -84.84748062841238, "alt_km": 819.5048206710753, "timestamp": "2025-12-21T03:56:50.501120+00:00", "meta": {"OBJECT_NAME": "SUOMI NPP", "OBJECT_ID": "2011-061A", "EPOCH": "2025-12-17T23:31:21.474624", "MEAN_MOTION": 14.19515682, "ECCENTRICITY": 0.00023932, "INCLINATION": 98.7779, "RA_OF_ASC_NODE": 289.2746, "ARG_OF_PERICENTER": 111.1248, "MEAN_ANOMALY": 249.0184, "EPHEMERIS_TYPE": 0, "CLASSIFICATION_TYPE": "U", "NORAD_CAT_ID": 37849, "ELEMENT_SET_NO": 999, "REV_AT_EPOCH": 73273, "BSTAR": 4.8615036e-05, "MEAN_MOTION_DOT": 5.8e-07, "MEAN_MOTION_DDOT": 0}, "tle": {"line1": "1 37849U 11061A   25351.98010966  .00000058  00000+0  48615-4 0  9995", "line2": "2 37849  98.7779 289.2746 0002393 111.1248 249.0184 14.19515682732735"}}, "geometry": {"type": "Point", "coordinates": [-84.84748062841238, 62.514619034680905]}}]}